start=new Date('2021-12-25T00:00:00.000Z').valueOf();
sats=[{"MEAN_MOTION_DOT":"0.00001896","INCLINATION":"53.0539","REV_AT_EPOCH":"4874","ELEMENT_SET_NO":"999","BSTAR":"0.00014614000000","EPHEMERIS_TYPE":"0","ECCENTRICITY":"0.00013760","SITE":"AFETR","TIME_SYSTEM":"UTC","OBJECT_ID":"2021-012AU","REF_FRAME":"TEME","RA_OF_ASC_NODE":"107.4979","PERIOD":"95.592","TLE_LINE1":"1 47662U 21012AU  21358.57728012  .00001896  00000-0  14614-3 0  9995","OBJECT_TYPE":"PAYLOAD","MEAN_MOTION":"15.06396742","SEMIMAJOR_AXIS":"6925.359","GP_ID":"192397243","PERIAPSIS":"546.271","NORAD_CAT_ID":"47662","LAUNCH_DATE":"2021-02-16","OBJECT_NAME":"STARLINK-2052","MEAN_MOTION_DDOT":"0.0000000000000","CLASSIFICATION_TYPE":"U","ARG_OF_PERICENTER":"101.4705","MEAN_ANOMALY":"258.6438","APOAPSIS":"548.176","TLE_LINE2":"2 47662  53.0539 107.4979 0001376 101.4705 258.6438 15.06396742 48746","EPOCH":"2021-12-24T13:51:17.002368","COUNTRY_CODE":"US","RCS_SIZE":"LARGE","CENTER_NAME":"EARTH","DECAY_DATE":null,"FILE":"3250462","MEAN_ELEMENT_THEORY":"SGP4"},{"DECAY_DATE":null,"FILE":"3250462","MEAN_ELEMENT_THEORY":"SGP4","TLE_LINE2":"2 47663  53.0565  25.9636 0001392  73.7119 148.0146 15.06399565  3574","COUNTRY_CODE":"US","EPOCH":"2021-12-24T22:00:00.999936","RCS_SIZE":"LARGE","CENTER_NAME":"EARTH","MEAN_MOTION_DDOT":"0.0000000000000","CLASSIFICATION_TYPE":"U","ARG_OF_PERICENTER":"73.7119","APOAPSIS":"548.179","MEAN_ANOMALY":"148.0146","SEMIMAJOR_AXIS":"6925.350","GP_ID":"192397495","NORAD_CAT_ID":"47663","PERIAPSIS":"546.251","LAUNCH_DATE":"2021-02-16","OBJECT_NAME":"STARLINK-2053","OBJECT_TYPE":"PAYLOAD","MEAN_MOTION":"15.06399565","REF_FRAME":"TEME","RA_OF_ASC_NODE":"25.9636","PERIOD":"95.592","TLE_LINE1":"1 47663U 21012AV  21358.91667824  .00012452  00000-0  85335-3 0  9995","INCLINATION":"53.0565","REV_AT_EPOCH":"357","ELEMENT_SET_NO":"999","EPHEMERIS_TYPE":"0","BSTAR":"0.00085335000000","ECCENTRICITY":"0.00013920","SITE":"AFETR","TIME_SYSTEM":"UTC","OBJECT_ID":"2021-012AV","MEAN_MOTION_DOT":"0.00012452"},{"APOAPSIS":"547.879","MEAN_ANOMALY":"261.8505","ARG_OF_PERICENTER":"98.2615","CLASSIFICATION_TYPE":"U","MEAN_MOTION_DDOT":"0.0000000000000","OBJECT_NAME":"STARLINK-2054","LAUNCH_DATE":"2021-02-16","NORAD_CAT_ID":"47664","PERIAPSIS":"546.284","GP_ID":"192363709","SEMIMAJOR_AXIS":"6925.216","MEAN_ELEMENT_THEORY":"SGP4","FILE":"3250080","DECAY_DATE":null,"CENTER_NAME":"EARTH","RCS_SIZE":"LARGE","TLE_LINE2":"2 47664  53.0543 108.3918 0001152  98.2615 261.8505 15.06443102 48712","COUNTRY_CODE":"US","EPOCH":"2021-12-24T09:05:59.301312","TIME_SYSTEM":"UTC","OBJECT_ID":"2021-012AW","ECCENTRICITY":"0.00011520","SITE":"AFETR","BSTAR":"-0.00050900000000","EPHEMERIS_TYPE":"0","ELEMENT_SET_NO":"999","INCLINATION":"53.0543","REV_AT_EPOCH":"4871","MEAN_MOTION_DOT":"-0.00007864","MEAN_MOTION":"15.06443102","OBJECT_TYPE":"PAYLOAD","TLE_LINE1":"1 47664U 21012AW  21358.37915858 -.00007864  00000-0 -50900-3 0  9992","PERIOD":"95.589","RA_OF_ASC_NODE":"108.3918","REF_FRAME":"TEME"},{"NORAD_CAT_ID":"47665","PERIAPSIS":"543.235","LAUNCH_DATE":"2021-02-16","OBJECT_NAME":"STARLINK-2056","SEMIMAJOR_AXIS":"6925.393","GP_ID":"192396494","ARG_OF_PERICENTER":"113.7196","APOAPSIS":"551.282","MEAN_ANOMALY":"246.4403","MEAN_MOTION_DDOT":"0.0000000000000","CLASSIFICATION_TYPE":"U","RCS_SIZE":"LARGE","CENTER_NAME":"EARTH","TLE_LINE2":"2 47665  53.0551 101.6984 0005810 113.7196 246.4403 15.06385426 48836","EPOCH":"2021-12-24T18:04:04.496448","COUNTRY_CODE":"US","FILE":"3250462","MEAN_ELEMENT_THEORY":"SGP4","DECAY_DATE":null,"MEAN_MOTION_DOT":"-0.00001067","SITE":"AFETR","ECCENTRICITY":"0.00058100","OBJECT_ID":"2021-012AX","TIME_SYSTEM":"UTC","REV_AT_EPOCH":"4883","INCLINATION":"53.0551","ELEMENT_SET_NO":"999","BSTAR":"-0.00005263300000","EPHEMERIS_TYPE":"0","PERIOD":"95.593","TLE_LINE1":"1 47665U 21012AX  21358.75282982 -.00001067  00000-0 -52633-4 0  9995","REF_FRAME":"TEME","RA_OF_ASC_NODE":"101.6984","MEAN_MOTION":"15.06385426","OBJECT_TYPE":"PAYLOAD"},{"OBJECT_TYPE":"PAYLOAD","MEAN_MOTION":"15.06387652","REF_FRAME":"TEME","RA_OF_ASC_NODE":"101.5563","PERIOD":"95.593","TLE_LINE1":"1 47666U 21012AY  21358.78599398 -.00001099  00000-0 -54925-4 0  9992","REV_AT_EPOCH":"4884","INCLINATION":"53.0550","ELEMENT_SET_NO":"999","BSTAR":"-0.00005492500000","EPHEMERIS_TYPE":"0","SITE":"AFETR","ECCENTRICITY":"0.00012890","TIME_SYSTEM":"UTC","OBJECT_ID":"2021-012AY","MEAN_MOTION_DOT":"-0.00001099","DECAY_DATE":null,"FILE":"3250462","MEAN_ELEMENT_THEORY":"SGP4","COUNTRY_CODE":"US","TLE_LINE2":"2 47666  53.0550 101.5563 0001289  91.4193 268.6943 15.06387652 48842","EPOCH":"2021-12-24T18:51:49.879872","RCS_SIZE":"MEDIUM","CENTER_NAME":"EARTH","MEAN_MOTION_DDOT":"0.0000000000000","CLASSIFICATION_TYPE":"U","ARG_OF_PERICENTER":"91.4193","APOAPSIS":"548.144","MEAN_ANOMALY":"268.6943","SEMIMAJOR_AXIS":"6925.386","GP_ID":"192396744","NORAD_CAT_ID":"47666","PERIAPSIS":"546.359","LAUNCH_DATE":"2021-02-16","OBJECT_NAME":"STARLINK-2057"},{"MEAN_ELEMENT_THEORY":"SGP4","FILE":"3250462","DECAY_DATE":null,"RCS_SIZE":"LARGE","CENTER_NAME":"EARTH","EPOCH":"2021-12-24T20:59:54.372768","TLE_LINE2":"2 47667  53.0536 126.1658 0001354  85.8697 274.2447 15.06392019 48489","COUNTRY_CODE":"US","ARG_OF_PERICENTER":"85.8697","MEAN_ANOMALY":"274.2447","APOAPSIS":"548.176","CLASSIFICATION_TYPE":"U","MEAN_MOTION_DDOT":"0.0000000000000","LAUNCH_DATE":"2021-02-16","OBJECT_NAME":"STARLINK-2058","NORAD_CAT_ID":"47667","PERIAPSIS":"546.300","GP_ID":"192397995","SEMIMAJOR_AXIS":"6925.373","MEAN_MOTION":"15.06392019","OBJECT_TYPE":"PAYLOAD","TLE_LINE1":"1 47667U 21012AZ  21358.87493487 -.00000868  00000-0 -39385-4 0  9991","PERIOD":"95.593","RA_OF_ASC_NODE":"126.1658","REF_FRAME":"TEME","SITE":"AFETR","ECCENTRICITY":"0.00013540","TIME_SYSTEM":"UTC","OBJECT_ID":"2021-012AZ","BSTAR":"-0.00003938500000","EPHEMERIS_TYPE":"0","INCLINATION":"53.0536","REV_AT_EPOCH":"4848","ELEMENT_SET_NO":"999","MEAN_MOTION_DOT":"-0.00000868"},{"ARG_OF_PERICENTER":"99.2026","MEAN_ANOMALY":"260.9083","APOAPSIS":"547.976","MEAN_MOTION_DDOT":"0.0000000000000","CLASSIFICATION_TYPE":"U","NORAD_CAT_ID":"47668","PERIAPSIS":"546.510","LAUNCH_DATE":"2021-02-16","OBJECT_NAME":"STARLINK-2059","SEMIMAJOR_AXIS":"6925.378","GP_ID":"192398246","FILE":"3250462","MEAN_ELEMENT_THEORY":"SGP4","DECAY_DATE":null,"RCS_SIZE":"LARGE","CENTER_NAME":"EARTH","COUNTRY_CODE":"US","TLE_LINE2":"2 47668  53.0524 106.5714 0001058  99.2026 260.9083 15.06390460 48776","EPOCH":"2021-12-24T18:49:52.132224","ECCENTRICITY":"0.00010580","SITE":"AFETR","OBJECT_ID":"2021-012BA","TIME_SYSTEM":"UTC","REV_AT_EPOCH":"4877","INCLINATION":"53.0524","ELEMENT_SET_NO":"999","EPHEMERIS_TYPE":"0","BSTAR":"-0.00006354800000","MEAN_MOTION_DOT":"-0.00001227","MEAN_MOTION":"15.06390460","OBJECT_TYPE":"PAYLOAD","PERIOD":"95.593","TLE_LINE1":"1 47668U 21012BA  21358.78463116 -.00001227  00000-0 -63548-4 0  9996","REF_FRAME":"TEME","RA_OF_ASC_NODE":"106.5714"},{"MEAN_MOTION_DOT":"-0.00005266","INCLINATION":"53.0560","REV_AT_EPOCH":"358","ELEMENT_SET_NO":"999","EPHEMERIS_TYPE":"0","BSTAR":"-0.00033485000000","SITE":"AFETR","ECCENTRICITY":"0.00014080","TIME_SYSTEM":"UTC","OBJECT_ID":"2021-012BB","REF_FRAME":"TEME","RA_OF_ASC_NODE":"30.9647","PERIOD":"95.592","TLE_LINE1":"1 47669U 21012BB  21358.91667824 -.00005266  00000-0 -33485-3 0  9997","OBJECT_TYPE":"PAYLOAD","MEAN_MOTION":"15.06405778","SEMIMAJOR_AXIS":"6925.331","GP_ID":"192396994","NORAD_CAT_ID":"47669","PERIAPSIS":"546.221","LAUNCH_DATE":"2021-02-16","OBJECT_NAME":"STARLINK-2060","MEAN_MOTION_DDOT":"0.0000000000000","CLASSIFICATION_TYPE":"U","ARG_OF_PERICENTER":"74.1728","MEAN_ANOMALY":"280.0843","APOAPSIS":"548.171","COUNTRY_CODE":"US","TLE_LINE2":"2 47669  53.0560  30.9647 0001408  74.1728 280.0843 15.06405778  3588","EPOCH":"2021-12-24T22:00:00.999936","RCS_SIZE":"MEDIUM","CENTER_NAME":"EARTH","DECAY_DATE":null,"FILE":"3250462","MEAN_ELEMENT_THEORY":"SGP4"},{"REF_FRAME":"TEME","RA_OF_ASC_NODE":"106.7849","PERIOD":"95.593","TLE_LINE1":"1 47670U 21012BC  21358.73304005  .00001869  00000-0  14446-3 0  9997","OBJECT_TYPE":"PAYLOAD","MEAN_MOTION":"15.06393649","MEAN_MOTION_DOT":"0.00001869","REV_AT_EPOCH":"4875","INCLINATION":"53.0538","ELEMENT_SET_NO":"999","BSTAR":"0.00014446000000","EPHEMERIS_TYPE":"0","SITE":"AFETR","ECCENTRICITY":"0.00069150","TIME_SYSTEM":"UTC","OBJECT_ID":"2021-012BC","COUNTRY_CODE":"US","TLE_LINE2":"2 47670  53.0538 106.7849 0006915 139.3343 220.8163 15.06393649 48754","EPOCH":"2021-12-24T17:35:34.660320","RCS_SIZE":"LARGE","CENTER_NAME":"EARTH","DECAY_DATE":null,"FILE":"3250462","MEAN_ELEMENT_THEORY":"SGP4","SEMIMAJOR_AXIS":"6925.368","GP_ID":"192397244","NORAD_CAT_ID":"47670","PERIAPSIS":"542.444","LAUNCH_DATE":"2021-02-16","OBJECT_NAME":"STARLINK-2062","MEAN_MOTION_DDOT":"0.0000000000000","CLASSIFICATION_TYPE":"U","ARG_OF_PERICENTER":"139.3343","APOAPSIS":"552.022","MEAN_ANOMALY":"220.8163"},{"TLE_LINE2":"2 47671  53.0553 107.4845 0001401 105.8264 254.2879 15.06392256 48748","COUNTRY_CODE":"US","EPOCH":"2021-12-24T13:57:56.266272","RCS_SIZE":"LARGE","CENTER_NAME":"EARTH","DECAY_DATE":null,"FILE":"3250462","MEAN_ELEMENT_THEORY":"SGP4","SEMIMAJOR_AXIS":"6925.372","GP_ID":"192397496","NORAD_CAT_ID":"47671","PERIAPSIS":"546.267","LAUNCH_DATE":"2021-02-16","OBJECT_NAME":"STARLINK-2064","MEAN_MOTION_DDOT":"0.0000000000000","CLASSIFICATION_TYPE":"U","ARG_OF_PERICENTER":"105.8264","APOAPSIS":"548.208","MEAN_ANOMALY":"254.2879","REF_FRAME":"TEME","RA_OF_ASC_NODE":"107.4845","PERIOD":"95.593","TLE_LINE1":"1 47671U 21012BD  21358.58190123  .00000355  00000-0  42720-4 0  9991","OBJECT_TYPE":"PAYLOAD","MEAN_MOTION":"15.06392256","MEAN_MOTION_DOT":"0.00000355","INCLINATION":"53.0553","REV_AT_EPOCH":"4874","ELEMENT_SET_NO":"999","EPHEMERIS_TYPE":"0","BSTAR":"0.00004272000000","ECCENTRICITY":"0.00014010","SITE":"AFETR","TIME_SYSTEM":"UTC","OBJECT_ID":"2021-012BD"}];
